{
  "type": "FeatureCollection",
  "features": [
    {
      "type": "Feature",
      "properties": {
        "norad_id": 66520,
        "name": "STARLINK-35952",
        "group": "last-30-days",
        "lat": -33.99200406517493,
        "lon": 35.77325169196745,
        "alt_km": 391.2632961699719,
        "timestamp": "2025-12-07T22:37:41.856946+00:00",
        "meta_object_name": "STARLINK-35952",
        "meta_object_id": "2025-265E",
        "meta_epoch": "2025-12-07T06:00:04.999968",
        "meta_mean_motion": 15.6224043,
        "meta_eccentricity": 0.00015707,
        "meta_inclination": 43.0002,
        "meta_ra_of_asc_node": 86.2428,
        "meta_arg_of_pericenter": 276.6302,
        "meta_mean_anomaly": 90.9949,
        "meta_ephemeris_type": 0,
        "meta_classification_type": "U",
        "meta_norad_cat_id": 66520,
        "meta_element_set_no": 999,
        "meta_rev_at_epoch": 411,
        "meta_bstar": -0.024332442,
        "meta_mean_motion_dot": -0.0194434,
        "meta_mean_motion_ddot": 0,
        "tle_line1": "1 66520U 25265E   25341.25005787 -.01944340  00000+0 -24332-1 0  9999",
        "tle_line2": "2 66520  43.0002  86.2428 0001570 276.6302  90.9949 15.62240430  4112"
      },
      "geometry": {
        "type": "Point",
        "coordinates": [
          35.77325169196745,
          -33.99200406517493
        ]
      }
    },
    {
      "type": "Feature",
      "properties": {
        "norad_id": 66521,
        "name": "STARLINK-35915",
        "group": "last-30-days",
        "lat": -33.07704390418969,
        "lon": 37.780123768366586,
        "alt_km": 391.2458066377012,
        "timestamp": "2025-12-07T22:37:41.856957+00:00",
        "meta_object_name": "STARLINK-35915",
        "meta_object_id": "2025-265F",
        "meta_epoch": "2025-12-07T06:00:04.999968",
        "meta_mean_motion": 15.62253252,
        "meta_eccentricity": 0.00015489,
        "meta_inclination": 43.0003,
        "meta_ra_of_asc_node": 86.2385,
        "meta_arg_of_pericenter": 278.0554,
        "meta_mean_anomaly": 91.4755,
        "meta_ephemeris_type": 0,
        "meta_classification_type": "U",
        "meta_norad_cat_id": 66521,
        "meta_element_set_no": 999,
        "meta_rev_at_epoch": 411,
        "meta_bstar": -0.024496184,
        "meta_mean_motion_dot": -0.0195671,
        "meta_mean_motion_ddot": 0,
        "tle_line1": "1 66521U 25265F   25341.25005787 -.01956710  00000+0 -24496-1 0  9995",
        "tle_line2": "2 66521  43.0003  86.2385 0001548 278.0554  91.4755 15.62253252  4113"
      },
      "geometry": {
        "type": "Point",
        "coordinates": [
          37.780123768366586,
          -33.07704390418969
        ]
      }
    },
    {
      "type": "Feature",
      "properties": {
        "norad_id": 66522,
        "name": "STARLINK-35946",
        "group": "last-30-days",
        "lat": -32.12799146928225,
        "lon": 39.74876219095419,
        "alt_km": 391.170759177111,
        "timestamp": "2025-12-07T22:37:41.856972+00:00",
        "meta_object_name": "STARLINK-35946",
        "meta_object_id": "2025-265G",
        "meta_epoch": "2025-12-07T06:00:04.999968",
        "meta_mean_motion": 15.62252275,
        "meta_eccentricity": 0.00015967,
        "meta_inclination": 43,
        "meta_ra_of_asc_node": 86.2338,
        "meta_arg_of_pericenter": 278.9807,
        "meta_mean_anomaly": 92.469,
        "meta_ephemeris_type": 0,
        "meta_classification_type": "U",
        "meta_norad_cat_id": 66522,
        "meta_element_set_no": 999,
        "meta_rev_at_epoch": 411,
        "meta_bstar": -0.024499841,
        "meta_mean_motion_dot": -0.01956936,
        "meta_mean_motion_ddot": 0,
        "tle_line1": "1 66522U 25265G   25341.25005787 -.01956936  00000+0 -24500-1 0  9992",
        "tle_line2": "2 66522  43.0000  86.2338 0001596 278.9807  92.4690 15.62252275  4115"
      },
      "geometry": {
        "type": "Point",
        "coordinates": [
          39.74876219095419,
          -32.12799146928225
        ]
      }
    },
    {
      "type": "Feature",
      "properties": {
        "norad_id": 66523,
        "name": "STARLINK-35969",
        "group": "last-30-days",
        "lat": -31.147124799678355,
        "lon": 41.68031083320474,
        "alt_km": 391.18677497523186,
        "timestamp": "2025-12-07T22:37:41.856985+00:00",
        "meta_object_name": "STARLINK-35969",
        "meta_object_id": "2025-265H",
        "meta_epoch": "2025-12-07T06:00:04.999968",
        "meta_mean_motion": 15.62253136,
        "meta_eccentricity": 0.00015653,
        "meta_inclination": 43.0001,
        "meta_ra_of_asc_node": 86.229,
        "meta_arg_of_pericenter": 276.4599,
        "meta_mean_anomaly": 96.9059,
        "meta_ephemeris_type": 0,
        "meta_classification_type": "U",
        "meta_norad_cat_id": 66523,
        "meta_element_set_no": 999,
        "meta_rev_at_epoch": 411,
        "meta_bstar": -0.024495967,
        "meta_mean_motion_dot": -0.01956699,
        "meta_mean_motion_ddot": 0,
        "tle_line1": "1 66523U 25265H   25341.25005787 -.01956699  00000+0 -24496-1 0  9993",
        "tle_line2": "2 66523  43.0001  86.2290 0001565 276.4599  96.9059 15.62253136  4116"
      },
      "geometry": {
        "type": "Point",
        "coordinates": [
          41.68031083320474,
          -31.147124799678355
        ]
      }
    },
    {
      "type": "Feature",
      "properties": {
        "norad_id": 66524,
        "name": "STARLINK-35687",
        "group": "last-30-days",
        "lat": -30.138700815867395,
        "lon": 43.56948655246512,
        "alt_km": 391.204671941804,
        "timestamp": "2025-12-07T22:37:41.856995+00:00",
        "meta_object_name": "STARLINK-35687",
        "meta_object_id": "2025-265J",
        "meta_epoch": "2025-12-07T06:00:04.999968",
        "meta_mean_motion": 15.62250118,
        "meta_eccentricity": 0.00015091,
        "meta_inclination": 43.0001,
        "meta_ra_of_asc_node": 86.2237,
        "meta_arg_of_pericenter": 275.1043,
        "meta_mean_anomaly": 100.1822,
        "meta_ephemeris_type": 0,
        "meta_classification_type": "U",
        "meta_norad_cat_id": 66524,
        "meta_element_set_no": 999,
        "meta_rev_at_epoch": 411,
        "meta_bstar": -0.024466652,
        "meta_mean_motion_dot": -0.01954392,
        "meta_mean_motion_ddot": 0,
        "tle_line1": "1 66524U 25265J   25341.25005787 -.01954392  00000+0 -24467-1 0  9990",
        "tle_line2": "2 66524  43.0001  86.2237 0001509 275.1043 100.1822 15.62250118  4119"
      },
      "geometry": {
        "type": "Point",
        "coordinates": [
          43.56948655246512,
          -30.138700815867395
        ]
      }
    },
    {
      "type": "Feature",
      "properties": {
        "norad_id": 66525,
        "name": "STARLINK-35975",
        "group": "last-30-days",
        "lat": -29.1040790187229,
        "lon": 45.420158322844664,
        "alt_km": 391.0808180275735,
        "timestamp": "2025-12-07T22:37:41.857008+00:00",
        "meta_object_name": "STARLINK-35975",
        "meta_object_id": "2025-265K",
        "meta_epoch": "2025-12-07T06:00:04.999968",
        "meta_mean_motion": 15.62248153,
        "meta_eccentricity": 0.00015609,
        "meta_inclination": 43.0003,
        "meta_ra_of_asc_node": 86.2192,
        "meta_arg_of_pericenter": 277.645,
        "meta_mean_anomaly": 99.5582,
        "meta_ephemeris_type": 0,
        "meta_classification_type": "U",
        "meta_norad_cat_id": 66525,
        "meta_element_set_no": 999,
        "meta_rev_at_epoch": 411,
        "meta_bstar": -0.024423966,
        "meta_mean_motion_dot": -0.01951295,
        "meta_mean_motion_ddot": 0,
        "tle_line1": "1 66525U 25265K   25341.25005787 -.01951295  00000+0 -24424-1 0  9993",
        "tle_line2": "2 66525  43.0003  86.2192 0001560 277.6450  99.5582 15.62248153  4118"
      },
      "geometry": {
        "type": "Point",
        "coordinates": [
          45.420158322844664,
          -29.1040790187229
        ]
      }
    },
    {
      "type": "Feature",
      "properties": {
        "norad_id": 66526,
        "name": "STARLINK-35932",
        "group": "last-30-days",
        "lat": -28.04647325495071,
        "lon": 47.229409407023596,
        "alt_km": 391.03375669562956,
        "timestamp": "2025-12-07T22:37:41.857019+00:00",
        "meta_object_name": "STARLINK-35932",
        "meta_object_id": "2025-265L",
        "meta_epoch": "2025-12-07T06:00:04.999968",
        "meta_mean_motion": 15.62251528,
        "meta_eccentricity": 0.0001561,
        "meta_inclination": 43.0002,
        "meta_ra_of_asc_node": 86.2145,
        "meta_arg_of_pericenter": 278.5511,
        "meta_mean_anomaly": 100.5682,
        "meta_ephemeris_type": 0,
        "meta_classification_type": "U",
        "meta_norad_cat_id": 66526,
        "meta_element_set_no": 999,
        "meta_rev_at_epoch": 400,
        "meta_bstar": -0.024494558,
        "meta_mean_motion_dot": -0.01956487,
        "meta_mean_motion_ddot": 0,
        "tle_line1": "1 66526U 25265L   25341.25005787 -.01956487  00000+0 -24495-1 0  9990",
        "tle_line2": "2 66526  43.0002  86.2145 0001561 278.5511 100.5682 15.62251528  4007"
      },
      "geometry": {
        "type": "Point",
        "coordinates": [
          47.229409407023596,
          -28.04647325495071
        ]
      }
    }
  ]
}